[
  {
    "name": "KUIPER-00096",
    "noradId": "65135",
    "line1": "1 65135U 25171D   26186.85463757  .00001867  00000+0  27390-3 0  9999",
    "line2": "2 65135  51.8997 355.5478 0000905 115.3823 244.7233 14.79931665 50398"
  },
  {
    "name": "KUIPER-00097",
    "noradId": "65136",
    "line1": "1 65136U 25171E   26186.85195468  .00004988  00000+0  68263-3 0  9992",
    "line2": "2 65136  51.9022 358.2140 0000611 103.4680 256.6351 14.79943000 50342"
  },
  {
    "name": "KUIPER-00098",
    "noradId": "65137",
    "line1": "1 65137U 25171F   26186.78171361  .00003549  00000+0  49424-3 0  9991",
    "line2": "2 65137  51.9003   0.8897 0000684 108.1211 251.9826 14.79937470 49654"
  },
  {
    "name": "KUIPER-00099",
    "noradId": "65138",
    "line1": "1 65138U 25171G   26186.82626671  .00002385  00000+0  34169-3 0  9993",
    "line2": "2 65138  51.9027 350.6969 0000732 106.9318 253.1724 14.79936004 50458"
  },
  {
    "name": "KUIPER-00100",
    "noradId": "65139",
    "line1": "1 65139U 25171H   26186.86272136  .00004991  00000+0  68315-3 0  9996",
    "line2": "2 65139  51.9020 348.0070 0000601 104.0983 256.0046 14.79940001 50493"
  },
  {
    "name": "KUIPER-00102",
    "noradId": "65140",
    "line1": "1 65140U 25171J   26186.86002198  .00002158  00000+0  31208-3 0  9991",
    "line2": "2 65140  51.8978 350.5079 0000612  76.9960 283.1071 14.79927614 50457"
  },
  {
    "name": "KUIPER-00103",
    "noradId": "65141",
    "line1": "1 65141U 25171K   26186.87491625  .00001829  00000+0  26888-3 0  9992",
    "line2": "2 65141  51.8996   7.9411 0000809 104.6444 255.4608 14.79934057 50216"
  },
  {
    "name": "KUIPER-00104",
    "noradId": "65142",
    "line1": "1 65142U 25171L   26186.88840001  .00001700  00000+0  25193-3 0  9996",
    "line2": "2 65142  51.9019 355.3783 0000583  94.5254 265.5775 14.79930507 50393"
  },
  {
    "name": "KUIPER-00105",
    "noradId": "65143",
    "line1": "1 65143U 25171M   26186.50890819  .00002753  00000+0  38996-3 0  9992",
    "line2": "2 65143  51.8996   4.6583 0000734 107.9557 252.1486 14.79931354 50237"
  },
  {
    "name": "KUIPER-00106",
    "noradId": "65144",
    "line1": "1 65144U 25171N   26186.82727251  .00005136  00000+0  70214-3 0  9994",
    "line2": "2 65144  51.9020 342.0129 0000582  94.9552 265.1477 14.79938205 50587"
  },
  {
    "name": "KUIPER-00107",
    "noradId": "65145",
    "line1": "1 65145U 25171P   26186.86542695  .00002208  00000+0  31854-3 0  9990",
    "line2": "2 65145  51.9020 345.5237 0000499 106.0257 254.0760 14.79931711 50532"
  },
  {
    "name": "KUIPER-00108",
    "noradId": "65146",
    "line1": "1 65146U 25171Q   26186.88571270  .00002352  00000+0  33743-3 0  9993",
    "line2": "2 65146  51.9020 357.9694 0000689 101.6040 258.5000 14.79932545 50362"
  },
  {
    "name": "KUIPER-00109",
    "noradId": "65147",
    "line1": "1 65147U 25171R   26186.85732135 -.00001005  00000+0 -10289-3 0  9996",
    "line2": "2 65147  51.9022 353.0379 0000724  86.5680 273.5365 14.79930326 50426"
  },
  {
    "name": "KUIPER-00110",
    "noradId": "65148",
    "line1": "1 65148U 25171S   26186.81009778  .00007185  00000+0  97060-3 0  9998",
    "line2": "2 65148  51.9011   5.8072 0000816 115.0140 245.0907 14.79930314 50230"
  },
  {
    "name": "KUIPER-00111",
    "noradId": "65149",
    "line1": "1 65149U 25171T   26186.90597602  .00002068  00000+0  30026-3 0  9991",
    "line2": "2 65149  51.8984  10.2630 0000599 105.8496 254.2533 14.79928308 50189"
  },
  {
    "name": "KUIPER-00112",
    "noradId": "65150",
    "line1": "1 65150U 25171U   26186.89110446  .00001985  00000+0  28928-3 0  9993",
    "line2": "2 65150  51.9022 352.9371 0000566 113.3882 246.7140 14.79931141 50426"
  }
]