{"fetched_at":"2026-07-06T18:35:12.836Z","source":"https://celestrak.org/NORAD/elements/gp.php?GROUP=kuiper&FORMAT=JSON","constellation":"kuiper","records":[{"OBJECT_NAME":"KUIPER-00096","OBJECT_ID":"2025-171D","EPOCH":"2026-07-05T20:30:40.686048","CLASSIFICATION_TYPE":"U","MEAN_MOTION":14.79931665,"ECCENTRICITY":0.00009054,"INCLINATION":51.8997,"RA_OF_ASC_NODE":355.5478,"ARG_OF_PERICENTER":115.3823,"MEAN_ANOMALY":244.7233,"EPHEMERIS_TYPE":0,"NORAD_CAT_ID":65135,"ELEMENT_SET_NO":999,"REV_AT_EPOCH":5039,"BSTAR":0.00027389793,"MEAN_MOTION_DOT":0.00001867,"MEAN_MOTION_DDOT":0},{"OBJECT_NAME":"KUIPER-00097","OBJECT_ID":"2025-171E","EPOCH":"2026-07-05T20:26:48.884352","CLASSIFICATION_TYPE":"U","MEAN_MOTION":14.79943,"ECCENTRICITY":0.00006112,"INCLINATION":51.9022,"RA_OF_ASC_NODE":358.214,"ARG_OF_PERICENTER":103.468,"MEAN_ANOMALY":256.6351,"EPHEMERIS_TYPE":0,"NORAD_CAT_ID":65136,"ELEMENT_SET_NO":999,"REV_AT_EPOCH":5034,"BSTAR":0.0006826287,"MEAN_MOTION_DOT":0.00004988,"MEAN_MOTION_DDOT":0},{"OBJECT_NAME":"KUIPER-00098","OBJECT_ID":"2025-171F","EPOCH":"2026-07-05T18:45:40.055904","CLASSIFICATION_TYPE":"U","MEAN_MOTION":14.7993747,"ECCENTRICITY":0.00006848,"INCLINATION":51.9003,"RA_OF_ASC_NODE":0.8897,"ARG_OF_PERICENTER":108.1211,"MEAN_ANOMALY":251.9826,"EPHEMERIS_TYPE":0,"NORAD_CAT_ID":65137,"ELEMENT_SET_NO":999,"REV_AT_EPOCH":4965,"BSTAR":0.000494241,"MEAN_MOTION_DOT":0.00003549,"MEAN_MOTION_DDOT":0},{"OBJECT_NAME":"KUIPER-00099","OBJECT_ID":"2025-171G","EPOCH":"2026-07-05T19:49:49.443744","CLASSIFICATION_TYPE":"U","MEAN_MOTION":14.79936004,"ECCENTRICITY":0.00007324,"INCLINATION":51.9027,"RA_OF_ASC_NODE":350.6969,"ARG_OF_PERICENTER":106.9318,"MEAN_ANOMALY":253.1724,"EPHEMERIS_TYPE":0,"NORAD_CAT_ID":65138,"ELEMENT_SET_NO":999,"REV_AT_EPOCH":5045,"BSTAR":0.0003416907,"MEAN_MOTION_DOT":0.00002385,"MEAN_MOTION_DDOT":0},{"OBJECT_NAME":"KUIPER-00100","OBJECT_ID":"2025-171H","EPOCH":"2026-07-05T20:42:19.125504","CLASSIFICATION_TYPE":"U","MEAN_MOTION":14.79940001,"ECCENTRICITY":0.0000601,"INCLINATION":51.902,"RA_OF_ASC_NODE":348.007,"ARG_OF_PERICENTER":104.0983,"MEAN_ANOMALY":256.0046,"EPHEMERIS_TYPE":0,"NORAD_CAT_ID":65139,"ELEMENT_SET_NO":999,"REV_AT_EPOCH":5049,"BSTAR":0.00068314985,"MEAN_MOTION_DOT":0.00004991,"MEAN_MOTION_DDOT":0},{"OBJECT_NAME":"KUIPER-00102","OBJECT_ID":"2025-171J","EPOCH":"2026-07-05T20:38:25.899072","CLASSIFICATION_TYPE":"U","MEAN_MOTION":14.79927614,"ECCENTRICITY":0.00006126,"INCLINATION":51.8978,"RA_OF_ASC_NODE":350.5079,"ARG_OF_PERICENTER":76.996,"MEAN_ANOMALY":283.1071,"EPHEMERIS_TYPE":0,"NORAD_CAT_ID":65140,"ELEMENT_SET_NO":999,"REV_AT_EPOCH":5045,"BSTAR":0.000312083,"MEAN_MOTION_DOT":0.00002158,"MEAN_MOTION_DDOT":0},{"OBJECT_NAME":"KUIPER-00103","OBJECT_ID":"2025-171K","EPOCH":"2026-07-05T20:59:52.764000","CLASSIFICATION_TYPE":"U","MEAN_MOTION":14.79934057,"ECCENTRICITY":0.00008095,"INCLINATION":51.8996,"RA_OF_ASC_NODE":7.9411,"ARG_OF_PERICENTER":104.6444,"MEAN_ANOMALY":255.4608,"EPHEMERIS_TYPE":0,"NORAD_CAT_ID":65141,"ELEMENT_SET_NO":999,"REV_AT_EPOCH":5021,"BSTAR":0.00026888207,"MEAN_MOTION_DOT":0.00001829,"MEAN_MOTION_DDOT":0},{"OBJECT_NAME":"KUIPER-00104","OBJECT_ID":"2025-171L","EPOCH":"2026-07-05T21:19:17.760864","CLASSIFICATION_TYPE":"U","MEAN_MOTION":14.79930507,"ECCENTRICITY":0.00005834,"INCLINATION":51.9019,"RA_OF_ASC_NODE":355.3783,"ARG_OF_PERICENTER":94.5254,"MEAN_ANOMALY":265.5775,"EPHEMERIS_TYPE":0,"NORAD_CAT_ID":65142,"ELEMENT_SET_NO":999,"REV_AT_EPOCH":5039,"BSTAR":0.00025192652,"MEAN_MOTION_DOT":0.000017,"MEAN_MOTION_DDOT":0},{"OBJECT_NAME":"KUIPER-00105","OBJECT_ID":"2025-171M","EPOCH":"2026-07-05T12:12:49.667616","CLASSIFICATION_TYPE":"U","MEAN_MOTION":14.79931354,"ECCENTRICITY":0.0000734,"INCLINATION":51.8996,"RA_OF_ASC_NODE":4.6583,"ARG_OF_PERICENTER":107.9557,"MEAN_ANOMALY":252.1486,"EPHEMERIS_TYPE":0,"NORAD_CAT_ID":65143,"ELEMENT_SET_NO":999,"REV_AT_EPOCH":5023,"BSTAR":0.00038996,"MEAN_MOTION_DOT":0.00002753,"MEAN_MOTION_DDOT":0},{"OBJECT_NAME":"KUIPER-00106","OBJECT_ID":"2025-171N","EPOCH":"2026-07-05T19:51:16.344864","CLASSIFICATION_TYPE":"U","MEAN_MOTION":14.79938205,"ECCENTRICITY":0.00005829,"INCLINATION":51.902,"RA_OF_ASC_NODE":342.0129,"ARG_OF_PERICENTER":94.9552,"MEAN_ANOMALY":265.1477,"EPHEMERIS_TYPE":0,"NORAD_CAT_ID":65144,"ELEMENT_SET_NO":999,"REV_AT_EPOCH":5058,"BSTAR":0.00070214159,"MEAN_MOTION_DOT":0.00005136,"MEAN_MOTION_DDOT":0},{"OBJECT_NAME":"KUIPER-00107","OBJECT_ID":"2025-171P","EPOCH":"2026-07-05T20:46:12.888480","CLASSIFICATION_TYPE":"U","MEAN_MOTION":14.79931711,"ECCENTRICITY":0.0000499,"INCLINATION":51.902,"RA_OF_ASC_NODE":345.5237,"ARG_OF_PERICENTER":106.0257,"MEAN_ANOMALY":254.076,"EPHEMERIS_TYPE":0,"NORAD_CAT_ID":65145,"ELEMENT_SET_NO":999,"REV_AT_EPOCH":5053,"BSTAR":0.00031854417,"MEAN_MOTION_DOT":0.00002208,"MEAN_MOTION_DDOT":0},{"OBJECT_NAME":"KUIPER-00108","OBJECT_ID":"2025-171Q","EPOCH":"2026-07-05T21:15:25.577280","CLASSIFICATION_TYPE":"U","MEAN_MOTION":14.79932545,"ECCENTRICITY":0.00006895,"INCLINATION":51.902,"RA_OF_ASC_NODE":357.9694,"ARG_OF_PERICENTER":101.604,"MEAN_ANOMALY":258.5,"EPHEMERIS_TYPE":0,"NORAD_CAT_ID":65146,"ELEMENT_SET_NO":999,"REV_AT_EPOCH":5036,"BSTAR":0.00033743331,"MEAN_MOTION_DOT":0.00002352,"MEAN_MOTION_DDOT":0},{"OBJECT_NAME":"KUIPER-00109","OBJECT_ID":"2025-171R","EPOCH":"2026-07-05T20:34:32.564640","CLASSIFICATION_TYPE":"U","MEAN_MOTION":14.79930326,"ECCENTRICITY":0.00007244,"INCLINATION":51.9022,"RA_OF_ASC_NODE":353.0379,"ARG_OF_PERICENTER":86.568,"MEAN_ANOMALY":273.5365,"EPHEMERIS_TYPE":0,"NORAD_CAT_ID":65147,"ELEMENT_SET_NO":999,"REV_AT_EPOCH":5042,"BSTAR":-0.00010288891,"MEAN_MOTION_DOT":-0.00001005,"MEAN_MOTION_DDOT":0},{"OBJECT_NAME":"KUIPER-00110","OBJECT_ID":"2025-171S","EPOCH":"2026-07-05T19:26:32.448192","CLASSIFICATION_TYPE":"U","MEAN_MOTION":14.79930314,"ECCENTRICITY":0.00008165,"INCLINATION":51.9011,"RA_OF_ASC_NODE":5.8072,"ARG_OF_PERICENTER":115.014,"MEAN_ANOMALY":245.0907,"EPHEMERIS_TYPE":0,"NORAD_CAT_ID":65148,"ELEMENT_SET_NO":999,"REV_AT_EPOCH":5023,"BSTAR":0.00097060126,"MEAN_MOTION_DOT":0.00007185,"MEAN_MOTION_DDOT":0},{"OBJECT_NAME":"KUIPER-00111","OBJECT_ID":"2025-171T","EPOCH":"2026-07-05T21:44:36.328128","CLASSIFICATION_TYPE":"U","MEAN_MOTION":14.79928308,"ECCENTRICITY":0.00005993,"INCLINATION":51.8984,"RA_OF_ASC_NODE":10.263,"ARG_OF_PERICENTER":105.8496,"MEAN_ANOMALY":254.2533,"EPHEMERIS_TYPE":0,"NORAD_CAT_ID":65149,"ELEMENT_SET_NO":999,"REV_AT_EPOCH":5018,"BSTAR":0.00030025573,"MEAN_MOTION_DOT":0.00002068,"MEAN_MOTION_DDOT":0},{"OBJECT_NAME":"KUIPER-00112","OBJECT_ID":"2025-171U","EPOCH":"2026-07-05T21:23:11.425344","CLASSIFICATION_TYPE":"U","MEAN_MOTION":14.79931141,"ECCENTRICITY":0.00005668,"INCLINATION":51.9022,"RA_OF_ASC_NODE":352.9371,"ARG_OF_PERICENTER":113.3882,"MEAN_ANOMALY":246.714,"EPHEMERIS_TYPE":0,"NORAD_CAT_ID":65150,"ELEMENT_SET_NO":999,"REV_AT_EPOCH":5042,"BSTAR":0.0002892808,"MEAN_MOTION_DOT":0.00001985,"MEAN_MOTION_DDOT":0}]}
